{"type": "FeatureCollection", "features": [ {"type": "Feature", "properties": {"norad_id": 33153, "name": "INTELSAT 25 (IS-25)", "group": "intelsat", "lat": 2.110898837155926, "lon": -166.3766925915567, "alt_km": 35782.33786963405, "timestamp": "2025-12-27T08:36:18.033737+00:00", "meta": {"OBJECT_NAME": "INTELSAT 25 (IS-25)", "OBJECT_ID": "2008-034A", "EPOCH": "2025-12-27T02:23:21.689376", "MEAN_MOTION": 1.00271146, "ECCENTRICITY": 0.0005021, "INCLINATION": 2.2627, "RA_OF_ASC_NODE": 82.491, "ARG_OF_PERICENTER": 191.1841, "MEAN_ANOMALY": 186.5053, "EPHEMERIS_TYPE": 0, "CLASSIFICATION_TYPE": "U", "NORAD_CAT_ID": 33153, "ELEMENT_SET_NO": 999, "REV_AT_EPOCH": 6397, "BSTAR": 0, "MEAN_MOTION_DOT": -2.02e-06, "MEAN_MOTION_DDOT": 0}, "tle": {"line1": "1 33153U 08034A   25361.09955659 -.00000202  00000+0  00000+0 0  9998", "line2": "2 33153   2.2627  82.4910 0005021 191.1841 186.5053  1.00271146 63978"}}, "geometry": {"type": "Point", "coordinates": [-166.3766925915567, 2.110898837155926]}}, {"type": "Feature", "properties": {"norad_id": 33376, "name": "GALAXY 19 (G-19)", "group": "intelsat", "lat": -0.005433920113025028, "lon": 128.1420436036901, "alt_km": 35797.109511271905, "timestamp": "2025-12-27T08:36:18.033750+00:00", "meta": {"OBJECT_NAME": "GALAXY 19 (G-19)", "OBJECT_ID": "2008-045A", "EPOCH": "2025-12-27T04:20:38.793120", "MEAN_MOTION": 1.00271485, "ECCENTRICITY": 0.000285, "INCLINATION": 0.0366, "RA_OF_ASC_NODE": 265.6699, "ARG_OF_PERICENTER": 17.5687, "MEAN_ANOMALY": 140.8364, "EPHEMERIS_TYPE": 0, "CLASSIFICATION_TYPE": "U", "NORAD_CAT_ID": 33376, "ELEMENT_SET_NO": 999, "REV_AT_EPOCH": 6317, "BSTAR": 0, "MEAN_MOTION_DOT": -1.17e-06, "MEAN_MOTION_DDOT": 0}, "tle": {"line1": "1 33376U 08045A   25361.18100455 -.00000117  00000+0  00000+0 0  9998", "line2": "2 33376   0.0366 265.6699 0002850  17.5687 140.8364  1.00271485 63172"}}, "geometry": {"type": "Point", "coordinates": [128.1420436036901, -0.005433920113025028]}}, {"type": "Feature", "properties": {"norad_id": 35493, "name": "FM-5", "group": "intelsat", "lat": 0.0053378433594607685, "lon": 138.98982895193006, "alt_km": 35783.75375199013, "timestamp": "2025-12-27T08:36:18.033762+00:00", "meta": {"OBJECT_NAME": "FM-5", "OBJECT_ID": "2009-034A", "EPOCH": "2025-12-25T21:13:02.840160", "MEAN_MOTION": 1.00269478, "ECCENTRICITY": 7.9e-05, "INCLINATION": 0.0148, "RA_OF_ASC_NODE": 303.8545, "ARG_OF_PERICENTER": 217.7513, "MEAN_ANOMALY": 165.1409, "EPHEMERIS_TYPE": 0, "CLASSIFICATION_TYPE": "U", "NORAD_CAT_ID": 35493, "ELEMENT_SET_NO": 999, "REV_AT_EPOCH": 4490, "BSTAR": 0, "MEAN_MOTION_DOT": -1.78e-06, "MEAN_MOTION_DDOT": 0}, "tle": {"line1": "1 35493U 09034A   25359.88406065 -.00000178  00000+0  00000+0 0  9996", "line2": "2 35493   0.0148 303.8545 0000790 217.7513 165.1409  1.00269478 44909"}}, "geometry": {"type": "Point", "coordinates": [138.98982895193006, 0.0053378433594607685]}}, {"type": "Feature", "properties": {"norad_id": 36097, "name": "INTELSAT 14 (IS-14)", "group": "intelsat", "lat": 0.015125534631738888, "lon": -179.8714929204607, "alt_km": 35788.96814457181, "timestamp": "2025-12-27T08:36:18.033774+00:00", "meta": {"OBJECT_NAME": "INTELSAT 14 (IS-14)", "OBJECT_ID": "2009-064A", "EPOCH": "2025-12-27T02:30:53.462880", "MEAN_MOTION": 1.00271432, "ECCENTRICITY": 0.0002695, "INCLINATION": 0.0147, "RA_OF_ASC_NODE": 44.1787, "ARG_OF_PERICENTER": 240.036, "MEAN_ANOMALY": 164.3491, "EPHEMERIS_TYPE": 0, "CLASSIFICATION_TYPE": "U", "NORAD_CAT_ID": 36097, "ELEMENT_SET_NO": 999, "REV_AT_EPOCH": 5888, "BSTAR": 0, "MEAN_MOTION_DOT": -2.51e-06, "MEAN_MOTION_DDOT": 0}, "tle": {"line1": "1 36097U 09064A   25361.10478545 -.00000251  00000+0  00000+0 0  9992", "line2": "2 36097   0.0147  44.1787 0002695 240.0360 164.3491  1.00271432 58884"}}, "geometry": {"type": "Point", "coordinates": [-179.8714929204607, 0.015125534631738888]}}, {"type": "Feature", "properties": {"norad_id": 36106, "name": "INTELSAT 15 (IS-15)", "group": "intelsat", "lat": -0.030744274841416733, "lon": -49.68564166769999, "alt_km": 35776.99894765982, "timestamp": "2025-12-27T08:36:18.033786+00:00", "meta": {"OBJECT_NAME": "INTELSAT 15 (IS-15)", "OBJECT_ID": "2009-067A", "EPOCH": "2025-12-26T18:35:08.612736", "MEAN_MOTION": 1.00269968, "ECCENTRICITY": 0.00024632, "INCLINATION": 0.0172, "RA_OF_ASC_NODE": 56.5413, "ARG_OF_PERICENTER": 231.3991, "MEAN_ANOMALY": 171.5093, "EPHEMERIS_TYPE": 0, "CLASSIFICATION_TYPE": "U", "NORAD_CAT_ID": 36106, "ELEMENT_SET_NO": 999, "REV_AT_EPOCH": 3950, "BSTAR": 0, "MEAN_MOTION_DOT": -1.63e-06, "MEAN_MOTION_DDOT": 0}, "tle": {"line1": "1 36106U 09067A   25360.77440524 -.00000163  00000+0  00000+0 0  9996", "line2": "2 36106   0.0172  56.5413 0002463 231.3991 171.5093  1.00269968 39509"}}, "geometry": {"type": "Point", "coordinates": [-49.68564166769999, -0.030744274841416733]}}, {"type": "Feature", "properties": {"norad_id": 36131, "name": "DIRECTV 12", "group": "intelsat", "lat": 0.009863464880834831, "lon": 122.45935149775342, "alt_km": 35787.81781589309, "timestamp": "2025-12-27T08:36:18.033798+00:00", "meta": {"OBJECT_NAME": "DIRECTV 12", "OBJECT_ID": "2009-075A", "EPOCH": "2025-12-25T14:17:27.635136", "MEAN_MOTION": 1.00273448, "ECCENTRICITY": 5.26e-05, "INCLINATION": 0.0362, "RA_OF_ASC_NODE": 165.2057, "ARG_OF_PERICENTER": 147.3669, "MEAN_ANOMALY": 253.4343, "EPHEMERIS_TYPE": 0, "CLASSIFICATION_TYPE": "U", "NORAD_CAT_ID": 36131, "ELEMENT_SET_NO": 999, "REV_AT_EPOCH": 4481, "BSTAR": 0, "MEAN_MOTION_DOT": -8.2e-07, "MEAN_MOTION_DDOT": 0}, "tle": {"line1": "1 36131U 09075A   25359.59545874 -.00000082  00000+0  00000+0 0  9995", "line2": "2 36131   0.0362 165.2057 0000526 147.3669 253.4343  1.00273448 44812"}}, "geometry": {"type": "Point", "coordinates": [122.45935149775342, 0.009863464880834831]}}, {"type": "Feature", "properties": {"norad_id": 36397, "name": "INTELSAT 16 (IS-16)", "group": "intelsat", "lat": 0.019471907847983878, "lon": 148.95575166585385, "alt_km": 35791.15308249307, "timestamp": "2025-12-27T08:36:18.033810+00:00", "meta": {"OBJECT_NAME": "INTELSAT 16 (IS-16)", "OBJECT_ID": "2010-006A", "EPOCH": "2025-12-27T03:51:57.013056", "MEAN_MOTION": 1.00271397, "ECCENTRICITY": 0.0002051, "INCLINATION": 0.0092, "RA_OF_ASC_NODE": 17.1566, "ARG_OF_PERICENTER": 256.51, "MEAN_ANOMALY": 164.034, "EPHEMERIS_TYPE": 0, "CLASSIFICATION_TYPE": "U", "NORAD_CAT_ID": 36397, "ELEMENT_SET_NO": 999, "REV_AT_EPOCH": 5792, "BSTAR": 0, "MEAN_MOTION_DOT": -2.22e-06, "MEAN_MOTION_DDOT": 0}, "tle": {"line1": "1 36397U 10006A   25361.16107654 -.00000222  00000+0  00000+0 0  9997", "line2": "2 36397   0.0092  17.1566 0002051 256.5100 164.0340  1.00271397 57925"}}, "geometry": {"type": "Point", "coordinates": [148.95575166585385, 0.019471907847983878]}}, {"type": "Feature", "properties": {"norad_id": 37185, "name": "XM-5", "group": "intelsat", "lat": -0.002275527683299531, "lon": 109.95011866271798, "alt_km": 35779.68137476246, "timestamp": "2025-12-27T08:36:18.033821+00:00", "meta": {"OBJECT_NAME": "XM-5", "OBJECT_ID": "2010-053A", "EPOCH": "2025-12-26T06:45:38.542176", "MEAN_MOTION": 1.00272159, "ECCENTRICITY": 0.0002039, "INCLINATION": 0.0641, "RA_OF_ASC_NODE": 269.394, "ARG_OF_PERICENTER": 243.8981, "MEAN_ANOMALY": 287.9534, "EPHEMERIS_TYPE": 0, "CLASSIFICATION_TYPE": "U", "NORAD_CAT_ID": 37185, "ELEMENT_SET_NO": 999, "REV_AT_EPOCH": 5575, "BSTAR": 0, "MEAN_MOTION_DOT": -1e-08, "MEAN_MOTION_DDOT": 0}, "tle": {"line1": "1 37185U 10053A   25360.28169609 -.00000001  00000+0  00000+0 0  9990", "line2": "2 37185   0.0641 269.3940 0002039 243.8981 287.9534  1.00272159 55756"}}, "geometry": {"type": "Point", "coordinates": [109.95011866271798, -0.002275527683299531]}}, {"type": "Feature", "properties": {"norad_id": 37238, "name": "INTELSAT 17 (IS-17)", "group": "intelsat", "lat": -0.03244089147290096, "lon": -68.87353921720292, "alt_km": 35773.72296347608, "timestamp": "2025-12-27T08:36:18.033833+00:00", "meta": {"OBJECT_NAME": "INTELSAT 17 (IS-17)", "OBJECT_ID": "2010-065B", "EPOCH": "2025-12-27T03:02:35.428416", "MEAN_MOTION": 1.00272098, "ECCENTRICITY": 0.0002945, "INCLINATION": 0.0312, "RA_OF_ASC_NODE": 75.3085, "ARG_OF_PERICENTER": 225.7235, "MEAN_ANOMALY": 266.4513, "EPHEMERIS_TYPE": 0, "CLASSIFICATION_TYPE": "U", "NORAD_CAT_ID": 37238, "ELEMENT_SET_NO": 999, "REV_AT_EPOCH": 5152, "BSTAR": 0, "MEAN_MOTION_DOT": 0, "MEAN_MOTION_DDOT": 0}, "tle": {"line1": "1 37238U 10065B   25361.12679894  .00000000  00000+0  00000+0 0  9996", "line2": "2 37238   0.0312  75.3085 0002945 225.7235 266.4513  1.00272098 51524"}}, "geometry": {"type": "Point", "coordinates": [-68.87353921720292, -0.03244089147290096]}}, {"type": "Feature", "properties": {"norad_id": 37392, "name": "INTELSAT 28 (IS-28)", "group": "intelsat", "lat": 1.288957426065103, "lon": -166.58502159503047, "alt_km": 35783.48869414025, "timestamp": "2025-12-27T08:36:18.033845+00:00", "meta": {"OBJECT_NAME": "INTELSAT 28 (IS-28)", "OBJECT_ID": "2011-016A", "EPOCH": "2025-12-27T02:34:45.592032", "MEAN_MOTION": 1.00271118, "ECCENTRICITY": 0.000386, "INCLINATION": 1.3598, "RA_OF_ASC_NODE": 84.8973, "ARG_OF_PERICENTER": 189.2455, "MEAN_ANOMALY": 188.6848, "EPHEMERIS_TYPE": 0, "CLASSIFICATION_TYPE": "U", "NORAD_CAT_ID": 37392, "ELEMENT_SET_NO": 999, "REV_AT_EPOCH": 5156, "BSTAR": 0, "MEAN_MOTION_DOT": -2.03e-06, "MEAN_MOTION_DDOT": 0}, "tle": {"line1": "1 37392U 11016A   25361.10747213 -.00000203  00000+0  00000+0 0  9999", "line2": "2 37392   1.3598  84.8973 0003860 189.2455 188.6848  1.00271118 51563"}}, "geometry": {"type": "Point", "coordinates": [-166.58502159503047, 1.288957426065103]}}]}